0 MOLNIYA 1-56
1 13890U 83019A   13280.37470156  .00001034  00000-0  00000+0 0  1213
2 13890 063.9545 060.6680 7026141 268.9498 210.4426 01.99924611223141
0 MOLNIYA 1-56
1 13890U 83019A   13289.43339713  .00000650  00000-0  00000+0 0  1226
2 13890 063.9590 059.5756 7029699 268.9160 250.5872 01.99941958223322
